[
    {
        "Altitude(m)": 553475.230289382,
        "Argument of Periapsis(deg)": 0.0,
        "Eccentricity": 0.0,
        "Inclination(deg)": 53.0,
        "Latitude(deg)": 13.004442914636188,
        "Longitude(deg)": 99.99759163908662,
        "Mean Anomaly(deg)": 16.363600000000012,
        "RAAN(deg)": 190.0,
        "Satellite Name": "Starlink Shell 1 837",
        "Satellite Number": 837,
        "Semi-Major Axis(m)": 6931778.249405717,
        "Time(s)": 0
    },
    {
        "Altitude(m)": 553482.4821201743,
        "Argument of Periapsis(deg)": 0.00034857847951123687,
        "Eccentricity": 0.0,
        "Inclination(deg)": 53.0,
        "Latitude(deg)": 13.500384311924673,
        "Longitude(deg)": 100.35384023473162,
        "Mean Anomaly(deg)": 16.990431203556707,
        "RAAN(deg)": 189.99948122992254,
        "Satellite Name": "Starlink Shell 1 837",
        "Satellite Number": 837,
        "Semi-Major Axis(m)": 6931778.249405717,
        "Time(s)": 10
    },
    {
        "Altitude(m)": 553492.2662379327,
        "Argument of Periapsis(deg)": 0.0006971569590224737,
        "Eccentricity": 0.0,
        "Inclination(deg)": 53.0,
        "Latitude(deg)": 13.995677916559062,
        "Longitude(deg)": 100.71173488947223,
        "Mean Anomaly(deg)": 17.61726240711343,
        "RAAN(deg)": 189.99896245984505,
        "Satellite Name": "Starlink Shell 1 837",
        "Satellite Number": 837,
        "Semi-Major Axis(m)": 6931778.249405717,
        "Time(s)": 20
    },
    {
        "Altitude(m)": 553504.5552917954,
        "Argument of Periapsis(deg)": 0.0010457354385337105,
        "Eccentricity": 0.0,
        "Inclination(deg)": 53.0,
        "Latitude(deg)": 14.490296060945782,
        "Longitude(deg)": 101.07134294413734,
        "Mean Anomaly(deg)": 18.24409361067015,
        "RAAN(deg)": 189.9984436897676,
        "Satellite Name": "Starlink Shell 1 837",
        "Satellite Number": 837,
        "Semi-Major Axis(m)": 6931778.249405717,
        "Time(s)": 30
    },
    {
        "Altitude(m)": 553519.3207983514,
        "Argument of Periapsis(deg)": 0.0013943139180449475,
        "Eccentricity": 0.0,
        "Inclination(deg)": 53.0,
        "Latitude(deg)": 14.984210704911149,
        "Longitude(deg)": 101.43273297672567,
        "Mean Anomaly(deg)": 18.870924814226868,
        "RAAN(deg)": 189.99792491969015,
        "Satellite Name": "Starlink Shell 1 837",
        "Satellite Number": 837,
        "Semi-Major Axis(m)": 6931778.249405717,
        "Time(s)": 40
    },
    {
        "Altitude(m)": 553536.5331584826,
        "Argument of Periapsis(deg)": 0.0017428923975561844,
        "Eccentricity": 0.0,
        "Inclination(deg)": 53.0,
        "Latitude(deg)": 15.47739341925794,
        "Longitude(deg)": 101.79597382081553,
        "Mean Anomaly(deg)": 19.497756017783566,
        "RAAN(deg)": 189.99740614961266,
        "Satellite Name": "Starlink Shell 1 837",
        "Satellite Number": 837,
        "Semi-Major Axis(m)": 6931778.249405717,
        "Time(s)": 50
    },
    {
        "Altitude(m)": 553556.1616747396,
        "Argument of Periapsis(deg)": 0.002091470877067421,
        "Eccentricity": 0.0,
        "Inclination(deg)": 53.0,
        "Latitude(deg)": 15.969815368974896,
        "Longitude(deg)": 102.16113509683547,
        "Mean Anomaly(deg)": 20.12458722134029,
        "RAAN(deg)": 189.9968873795352,
        "Satellite Name": "Starlink Shell 1 837",
        "Satellite Number": 837,
        "Semi-Major Axis(m)": 6931778.249405717,
        "Time(s)": 60
    },
    {
        "Altitude(m)": 553578.1745692223,
        "Argument of Periapsis(deg)": 0.0024400493565786582,
        "Eccentricity": 0.0,
        "Inclination(deg)": 53.0,
        "Latitude(deg)": 16.46144729608626,
        "Longitude(deg)": 102.52828774329906,
        "Mean Anomaly(deg)": 20.751418424897007,
        "RAAN(deg)": 189.9963686094577,
        "Satellite Name": "Starlink Shell 1 837",
        "Satellite Number": 837,
        "Semi-Major Axis(m)": 6931778.249405717,
        "Time(s)": 70
    },
    {
        "Altitude(m)": 553602.5390020198,
        "Argument of Periapsis(deg)": 0.002788627836089895,
        "Eccentricity": 0.0,
        "Inclination(deg)": 53.0,
        "Latitude(deg)": 16.952259502129635,
        "Longitude(deg)": 102.89750303510516,
        "Mean Anomaly(deg)": 21.37824962845373,
        "RAAN(deg)": 189.99584983938024,
        "Satellite Name": "Starlink Shell 1 837",
        "Satellite Number": 837,
        "Semi-Major Axis(m)": 6931778.249405717,
        "Time(s)": 80
    },
    {
        "Altitude(m)": 553629.2210901356,
        "Argument of Periapsis(deg)": 0.0031372063156011316,
        "Eccentricity": 0.0,
        "Inclination(deg)": 53.0,
        "Latitude(deg)": 17.44222183024912,
        "Longitude(deg)": 103.26885311462142,
        "Mean Anomaly(deg)": 22.00508083201045,
        "RAAN(deg)": 189.99533106930275,
        "Satellite Name": "Starlink Shell 1 837",
        "Satellite Number": 837,
        "Semi-Major Axis(m)": 6931778.249405717,
        "Time(s)": 90
    },
    {
        "Altitude(m)": 553658.1859269107,
        "Argument of Periapsis(deg)": 0.0034857847951123688,
        "Eccentricity": 0.0,
        "Inclination(deg)": 53.0,
        "Latitude(deg)": 17.93130364689145,
        "Longitude(deg)": 103.64241152264668,
        "Mean Anomaly(deg)": 22.631912035567147,
        "RAAN(deg)": 189.9948122992253,
        "Satellite Name": "Starlink Shell 1 837",
        "Satellite Number": 837,
        "Semi-Major Axis(m)": 6931778.249405717,
        "Time(s)": 100
    },
    {
        "Altitude(m)": 553689.3976019504,
        "Argument of Periapsis(deg)": 0.003834363274623606,
        "Eccentricity": 0.0,
        "Inclination(deg)": 53.0,
        "Latitude(deg)": 18.419473823093828,
        "Longitude(deg)": 104.01825221634022,
        "Mean Anomaly(deg)": 23.258743239123866,
        "RAAN(deg)": 189.9942935291478,
        "Satellite Name": "Starlink Shell 1 837",
        "Satellite Number": 837,
        "Semi-Major Axis(m)": 6931778.249405717,
        "Time(s)": 110
    },
    {
        "Altitude(m)": 553722.8192215192,
        "Argument of Periapsis(deg)": 0.004182941754134842,
        "Eccentricity": 0.0,
        "Inclination(deg)": 53.0,
        "Latitude(deg)": 18.906700715350414,
        "Longitude(deg)": 104.39645009982867,
        "Mean Anomaly(deg)": 23.885574442680564,
        "RAAN(deg)": 189.99377475907033,
        "Satellite Name": "Starlink Shell 1 837",
        "Satellite Number": 837,
        "Semi-Major Axis(m)": 6931778.249405717,
        "Time(s)": 120
    },
    {
        "Altitude(m)": 553758.4129293815,
        "Argument of Periapsis(deg)": 0.004531520233646079,
        "Eccentricity": 0.0,
        "Inclination(deg)": 53.0,
        "Latitude(deg)": 19.392952146046667,
        "Longitude(deg)": 104.77708155457067,
        "Mean Anomaly(deg)": 24.51240564623731,
        "RAAN(deg)": 189.99325598899287,
        "Satellite Name": "Starlink Shell 1 837",
        "Satellite Number": 837,
        "Semi-Major Axis(m)": 6931778.249405717,
        "Time(s)": 130
    },
    {
        "Altitude(m)": 553796.1399281501,
        "Argument of Periapsis(deg)": 0.0048800987131573164,
        "Eccentricity": 0.0,
        "Inclination(deg)": 53.0,
        "Latitude(deg)": 19.878195383449917,
        "Longitude(deg)": 105.16022345655722,
        "Mean Anomaly(deg)": 25.139236849794006,
        "RAAN(deg)": 189.99273721891538,
        "Satellite Name": "Starlink Shell 1 837",
        "Satellite Number": 837,
        "Semi-Major Axis(m)": 6931778.249405717,
        "Time(s)": 140
    },
    {
        "Altitude(m)": 553835.9605010021,
        "Argument of Periapsis(deg)": 0.005228677192668553,
        "Eccentricity": 0.0,
        "Inclination(deg)": 53.0,
        "Latitude(deg)": 20.3623971212451,
        "Longitude(deg)": 105.54595370604346,
        "Mean Anomaly(deg)": 25.76606805335073,
        "RAAN(deg)": 189.99221844883792,
        "Satellite Name": "Starlink Shell 1 837",
        "Satellite Number": 837,
        "Semi-Major Axis(m)": 6931778.249405717,
        "Time(s)": 150
    },
    {
        "Altitude(m)": 553877.8340339031,
        "Argument of Periapsis(deg)": 0.00557725567217979,
        "Eccentricity": 0.0,
        "Inclination(deg)": 53.0,
        "Latitude(deg)": 20.845523457604504,
        "Longitude(deg)": 105.93435175687814,
        "Mean Anomaly(deg)": 26.392899256907445,
        "RAAN(deg)": 189.99169967876048,
        "Satellite Name": "Starlink Shell 1 837",
        "Satellite Number": 837,
        "Semi-Major Axis(m)": 6931778.249405717,
        "Time(s)": 160
    },
    {
        "Altitude(m)": 553921.7190381795,
        "Argument of Periapsis(deg)": 0.0059258341516910265,
        "Eccentricity": 0.0,
        "Inclination(deg)": 53.0,
        "Latitude(deg)": 21.32753987378284,
        "Longitude(deg)": 106.32549763249295,
        "Mean Anomaly(deg)": 27.019730460464146,
        "RAAN(deg)": 189.991180908683,
        "Satellite Name": "Starlink Shell 1 837",
        "Satellite Number": 837,
        "Semi-Major Axis(m)": 6931778.249405717,
        "Time(s)": 170
    },
    {
        "Altitude(m)": 553967.5731735632,
        "Argument of Periapsis(deg)": 0.006274412631202263,
        "Eccentricity": 0.0,
        "Inclination(deg)": 53.0,
        "Latitude(deg)": 21.80841121222639,
        "Longitude(deg)": 106.7194724542308,
        "Mean Anomaly(deg)": 27.646561664020886,
        "RAAN(deg)": 189.99066213860553,
        "Satellite Name": "Starlink Shell 1 837",
        "Satellite Number": 837,
        "Semi-Major Axis(m)": 6931778.249405717,
        "Time(s)": 180
    }
]